STARLINK-5053           
1 53913U 22119AD  26058.28049342  .00000613  00000+0  56599-4 0  9996
2 53913  53.2183   0.8326 0001401  86.7914 273.3239 15.08839567190253
STARLINK-5040           
1 53914U 22119AE  26058.27680900  .00000772  00000+0  66563-4 0  9995
2 53914  53.2200   0.8169 0001534  92.4090 267.7078 15.08839483190250
STARLINK-5017           
1 53915U 22119AF  26058.22530727  .00000869  00000+0  72658-4 0  9991
2 53915  53.2175   1.1965 0001236  84.6164 275.4969 15.08843419190242
STARLINK-5051           
1 53916U 22119AG  26058.17557340  .00000633  00000+0  57870-4 0  9994
2 53916  53.2198 340.9736 0001416  90.3013 269.8141 15.08841572190534
STARLINK-5036           
1 53917U 22119AH  26058.21793820  .00000774  00000+0  66707-4 0  9990
2 53917  53.2192   1.1533 0001483  85.0402 275.0760 15.08842039190240
STARLINK-5012           
1 53918U 22119AJ  26058.27312360  .00000391  00000+0  42631-4 0  9998
2 53918  53.2195   0.7906 0001452  93.9250 266.1909 15.08840933190256
STARLINK-5023           
1 53919U 22119AK  26058.07072082  .00000260  00000+0  34446-4 0  9991
2 53919  53.2190   1.6596 0001665  96.0850 264.0332 15.08837135190227
STARLINK-5025           
1 53920U 22119AL  26058.22258427 -.00000441  00000+0 -96203-5 0  9992
2 53920  53.2194   1.1756 0001470  87.7795 272.3366 15.08838451190248
STARLINK-5002           
1 53922U 22119AN  26058.25837853  .00000471  00000+0  47700-4 0  9991
2 53922  53.2191   0.6963 0001414  97.0418 263.0736 15.08842282190251
STARLINK-5004           
1 53923U 22119AP  26058.26575630  .00000671  00000+0  60273-4 0  9997
2 53923  53.2188   0.7429 0001372  90.2823 269.8326 15.08839061190254
STARLINK-5001           
1 53924U 22119AQ  26058.20550728  .00000639  00000+0  58233-4 0  9990
2 53924  53.2184 356.0903 0001452  94.3018 265.8140 15.08832067190311
STARLINK-5011           
1 53925U 22119AR  26058.11116208  .00000600  00000+0  55770-4 0  9993
2 53925  53.2200   1.2110 0001395  81.3493 278.7657 15.08846342190237
STARLINK-5014           
1 53926U 22119AS  26058.06196443  .00002505  00000+0  17546-3 0  9991
2 53926  53.2193 356.6176 0001329 100.4041 259.7101 15.08832970190300
STARLINK-5009           
1 53928U 22119AU  26058.20412174  .00000700  00000+0  62088-4 0  9998
2 53928  53.2197 351.0896 0001581  83.8471 276.2702 15.08843232190387
STARLINK-5018           
1 53929U 22119AV  26058.25205927 -.00001127  00000+0 -52696-4 0  9990
2 53929  53.2208   1.3496 0001683  90.6646 269.4539 15.08838596190249
STARLINK-5010           
1 53930U 22119AW  26058.18938541  .00000870  00000+0  72753-4 0  9997
2 53930  53.2191 350.9984 0001721  79.3301 280.7885 15.08841397190380
