[{"OBJECT_NAME":"STARLINK-5053","OBJECT_ID":"2022-119AD","EPOCH":"2026-02-27T06:43:54.631488","MEAN_MOTION":15.08839567,"ECCENTRICITY":0.0001401,"INCLINATION":53.2183,"RA_OF_ASC_NODE":0.8326,"ARG_OF_PERICENTER":86.7914,"MEAN_ANOMALY":273.3239,"EPHEMERIS_TYPE":0,"CLASSIFICATION_TYPE":"U","NORAD_CAT_ID":53913,"ELEMENT_SET_NO":999,"REV_AT_EPOCH":19025,"BSTAR":5.6599156e-5,"MEAN_MOTION_DOT":6.13e-6,"MEAN_MOTION_DDOT":0},{"OBJECT_NAME":"STARLINK-5040","OBJECT_ID":"2022-119AE","EPOCH":"2026-02-27T06:38:36.297600","MEAN_MOTION":15.08839483,"ECCENTRICITY":0.0001534,"INCLINATION":53.22,"RA_OF_ASC_NODE":0.8169,"ARG_OF_PERICENTER":92.409,"MEAN_ANOMALY":267.7078,"EPHEMERIS_TYPE":0,"CLASSIFICATION_TYPE":"U","NORAD_CAT_ID":53914,"ELEMENT_SET_NO":999,"REV_AT_EPOCH":19025,"BSTAR":6.6563198e-5,"MEAN_MOTION_DOT":7.72e-6,"MEAN_MOTION_DDOT":0},{"OBJECT_NAME":"STARLINK-5017","OBJECT_ID":"2022-119AF","EPOCH":"2026-02-27T05:24:26.548128","MEAN_MOTION":15.08843419,"ECCENTRICITY":0.00012362,"INCLINATION":53.2175,"RA_OF_ASC_NODE":1.1965,"ARG_OF_PERICENTER":84.6164,"MEAN_ANOMALY":275.4969,"EPHEMERIS_TYPE":0,"CLASSIFICATION_TYPE":"U","NORAD_CAT_ID":53915,"ELEMENT_SET_NO":999,"REV_AT_EPOCH":19024,"BSTAR":7.2658104e-5,"MEAN_MOTION_DOT":8.69e-6,"MEAN_MOTION_DDOT":0},{"OBJECT_NAME":"STARLINK-5051","OBJECT_ID":"2022-119AG","EPOCH":"2026-02-27T04:12:49.541760","MEAN_MOTION":15.08841572,"ECCENTRICITY":0.00014169,"INCLINATION":53.2198,"RA_OF_ASC_NODE":340.9736,"ARG_OF_PERICENTER":90.3013,"MEAN_ANOMALY":269.8141,"EPHEMERIS_TYPE":0,"CLASSIFICATION_TYPE":"U","NORAD_CAT_ID":53916,"ELEMENT_SET_NO":999,"REV_AT_EPOCH":19053,"BSTAR":5.7869555e-5,"MEAN_MOTION_DOT":6.33e-6,"MEAN_MOTION_DDOT":0},{"OBJECT_NAME":"STARLINK-5036","OBJECT_ID":"2022-119AH","EPOCH":"2026-02-27T05:13:49.860480","MEAN_MOTION":15.08842039,"ECCENTRICITY":0.0001483,"INCLINATION":53.2192,"RA_OF_ASC_NODE":1.1533,"ARG_OF_PERICENTER":85.0402,"MEAN_ANOMALY":275.076,"EPHEMERIS_TYPE":0,"CLASSIFICATION_TYPE":"U","NORAD_CAT_ID":53917,"ELEMENT_SET_NO":999,"REV_AT_EPOCH":19024,"BSTAR":6.6706938e-5,"MEAN_MOTION_DOT":7.74e-6,"MEAN_MOTION_DDOT":0},{"OBJECT_NAME":"STARLINK-5012","OBJECT_ID":"2022-119AJ","EPOCH":"2026-02-27T06:33:17.879040","MEAN_MOTION":15.08840933,"ECCENTRICITY":0.00014527,"INCLINATION":53.2195,"RA_OF_ASC_NODE":0.7906,"ARG_OF_PERICENTER":93.925,"MEAN_ANOMALY":266.1909,"EPHEMERIS_TYPE":0,"CLASSIFICATION_TYPE":"U","NORAD_CAT_ID":53918,"ELEMENT_SET_NO":999,"REV_AT_EPOCH":19025,"BSTAR":4.2631161e-5,"MEAN_MOTION_DOT":3.91e-6,"MEAN_MOTION_DDOT":0},{"OBJECT_NAME":"STARLINK-5023","OBJECT_ID":"2022-119AK","EPOCH":"2026-02-27T01:41:50.278848","MEAN_MOTION":15.08837135,"ECCENTRICITY":0.0001665,"INCLINATION":53.219,"RA_OF_ASC_NODE":1.6596,"ARG_OF_PERICENTER":96.085,"MEAN_ANOMALY":264.0332,"EPHEMERIS_TYPE":0,"CLASSIFICATION_TYPE":"U","NORAD_CAT_ID":53919,"ELEMENT_SET_NO":999,"REV_AT_EPOCH":19022,"BSTAR":3.4445614e-5,"MEAN_MOTION_DOT":2.6e-6,"MEAN_MOTION_DDOT":0},{"OBJECT_NAME":"STARLINK-5025","OBJECT_ID":"2022-119AL","EPOCH":"2026-02-27T05:20:31.280928","MEAN_MOTION":15.08838451,"ECCENTRICITY":0.00014703,"INCLINATION":53.2194,"RA_OF_ASC_NODE":1.1756,"ARG_OF_PERICENTER":87.7795,"MEAN_ANOMALY":272.3366,"EPHEMERIS_TYPE":0,"CLASSIFICATION_TYPE":"U","NORAD_CAT_ID":53920,"ELEMENT_SET_NO":999,"REV_AT_EPOCH":19024,"BSTAR":-9.620341e-6,"MEAN_MOTION_DOT":-4.41e-6,"MEAN_MOTION_DDOT":0},{"OBJECT_NAME":"STARLINK-5002","OBJECT_ID":"2022-119AN","EPOCH":"2026-02-27T06:12:03.904992","MEAN_MOTION":15.08842282,"ECCENTRICITY":0.00014149,"INCLINATION":53.2191,"RA_OF_ASC_NODE":0.6963,"ARG_OF_PERICENTER":97.0418,"MEAN_ANOMALY":263.0736,"EPHEMERIS_TYPE":0,"CLASSIFICATION_TYPE":"U","NORAD_CAT_ID":53922,"ELEMENT_SET_NO":999,"REV_AT_EPOCH":19025,"BSTAR":4.7699911e-5,"MEAN_MOTION_DOT":4.71e-6,"MEAN_MOTION_DDOT":0},{"OBJECT_NAME":"STARLINK-5004","OBJECT_ID":"2022-119AP","EPOCH":"2026-02-27T06:22:41.344320","MEAN_MOTION":15.08839061,"ECCENTRICITY":0.00013724,"INCLINATION":53.2188,"RA_OF_ASC_NODE":0.7429,"ARG_OF_PERICENTER":90.2823,"MEAN_ANOMALY":269.8326,"EPHEMERIS_TYPE":0,"CLASSIFICATION_TYPE":"U","NORAD_CAT_ID":53923,"ELEMENT_SET_NO":999,"REV_AT_EPOCH":19025,"BSTAR":6.0273354e-5,"MEAN_MOTION_DOT":6.71e-6,"MEAN_MOTION_DDOT":0},{"OBJECT_NAME":"STARLINK-5001","OBJECT_ID":"2022-119AQ","EPOCH":"2026-02-27T04:55:55.828992","MEAN_MOTION":15.08832067,"ECCENTRICITY":0.00014522,"INCLINATION":53.2184,"RA_OF_ASC_NODE":356.0903,"ARG_OF_PERICENTER":94.3018,"MEAN_ANOMALY":265.814,"EPHEMERIS_TYPE":0,"CLASSIFICATION_TYPE":"U","NORAD_CAT_ID":53924,"ELEMENT_SET_NO":999,"REV_AT_EPOCH":19031,"BSTAR":5.8232686e-5,"MEAN_MOTION_DOT":6.39e-6,"MEAN_MOTION_DDOT":0},{"OBJECT_NAME":"STARLINK-5011","OBJECT_ID":"2022-119AR","EPOCH":"2026-02-27T02:40:04.403712","MEAN_MOTION":15.08846342,"ECCENTRICITY":0.00013951,"INCLINATION":53.22,"RA_OF_ASC_NODE":1.211,"ARG_OF_PERICENTER":81.3493,"MEAN_ANOMALY":278.7657,"EPHEMERIS_TYPE":0,"CLASSIFICATION_TYPE":"U","NORAD_CAT_ID":53925,"ELEMENT_SET_NO":999,"REV_AT_EPOCH":19023,"BSTAR":5.5770025e-5,"MEAN_MOTION_DOT":6.0e-6,"MEAN_MOTION_DDOT":0},{"OBJECT_NAME":"STARLINK-5014","OBJECT_ID":"2022-119AS","EPOCH":"2026-02-27T01:29:13.726752","MEAN_MOTION":15.0883297,"ECCENTRICITY":0.00013297,"INCLINATION":53.2193,"RA_OF_ASC_NODE":356.6176,"ARG_OF_PERICENTER":100.4041,"MEAN_ANOMALY":259.7101,"EPHEMERIS_TYPE":0,"CLASSIFICATION_TYPE":"U","NORAD_CAT_ID":53926,"ELEMENT_SET_NO":999,"REV_AT_EPOCH":19030,"BSTAR":0.00017546065,"MEAN_MOTION_DOT":2.505e-5,"MEAN_MOTION_DDOT":0},{"OBJECT_NAME":"STARLINK-5009","OBJECT_ID":"2022-119AU","EPOCH":"2026-02-27T04:53:56.118336","MEAN_MOTION":15.08843232,"ECCENTRICITY":0.00015818,"INCLINATION":53.2197,"RA_OF_ASC_NODE":351.0896,"ARG_OF_PERICENTER":83.8471,"MEAN_ANOMALY":276.2702,"EPHEMERIS_TYPE":0,"CLASSIFICATION_TYPE":"U","NORAD_CAT_ID":53928,"ELEMENT_SET_NO":999,"REV_AT_EPOCH":19038,"BSTAR":6.2087889e-5,"MEAN_MOTION_DOT":7.0e-6,"MEAN_MOTION_DDOT":0},{"OBJECT_NAME":"STARLINK-5018","OBJECT_ID":"2022-119AV","EPOCH":"2026-02-27T06:02:57.920928","MEAN_MOTION":15.08838596,"ECCENTRICITY":0.00016831,"INCLINATION":53.2208,"RA_OF_ASC_NODE":1.3496,"ARG_OF_PERICENTER":90.6646,"MEAN_ANOMALY":269.4539,"EPHEMERIS_TYPE":0,"CLASSIFICATION_TYPE":"U","NORAD_CAT_ID":53929,"ELEMENT_SET_NO":999,"REV_AT_EPOCH":19024,"BSTAR":-5.2695966e-5,"MEAN_MOTION_DOT":-1.127e-5,"MEAN_MOTION_DDOT":0},{"OBJECT_NAME":"STARLINK-5010","OBJECT_ID":"2022-119AW","EPOCH":"2026-02-27T04:32:42.899424","MEAN_MOTION":15.08841397,"ECCENTRICITY":0.00017215,"INCLINATION":53.2191,"RA_OF_ASC_NODE":350.9984,"ARG_OF_PERICENTER":79.3301,"MEAN_ANOMALY":280.7885,"EPHEMERIS_TYPE":0,"CLASSIFICATION_TYPE":"U","NORAD_CAT_ID":53930,"ELEMENT_SET_NO":999,"REV_AT_EPOCH":19038,"BSTAR":7.2752764e-5,"MEAN_MOTION_DOT":8.7e-6,"MEAN_MOTION_DDOT":0}]
